NORAD_CAT_ID,OBJECT_NAME,OBJECT_TYPE,EPOCH,MEAN_MOTION,ECCENTRICITY,INCLINATION,RA_OF_ASC_NODE,ARG_OF_PERICENTER,MEAN_ANOMALY,BSTAR,MEAN_MOTION_DOT,MEAN_MOTION_DDOT,TLE_LINE0,TLE_LINE1,TLE_LINE2,SEMIMAJOR_AXIS,PERIOD,APOGEE,PERIGEE,DECAYED
50193.0,STARLINK-3261,PAYLOAD,2023-11-08 11:11:23,15.08842186,0.0001606,53.2155,104.8959,93.7336,266.384,0.00012278,1.667e-05,0.0,0 STARLINK-3261,1 50193U 21125AP  23312.46623901  .00001667  00000-0  12278-3 0  9994,2 50193  53.2155 104.8959 0001606  93.7336 266.3840 15.08842186107595,6917.874,95.437,540.85,538.628,0.0
50193.0,STARLINK-3261,PAYLOAD,2023-11-08 14:22:09,15.08840973,0.000145,53.2165,104.3012,90.6201,269.4957,6.8476e-05,8.02e-06,0.0,0 STARLINK-3261,1 50193U 21125AP  23312.59872038  .00000802  00000-0  68476-4 0  9997,2 50193  53.2165 104.3012 0001450  90.6201 269.4957 15.08840973108142,6917.877,95.437,540.746,538.739,0.0
50193.0,STARLINK-3261,PAYLOAD,2023-11-08 17:32:55,15.08842391,0.0001677,53.2156,103.7084,95.3312,264.7872,0.00014422,2.008e-05,0.0,0 STARLINK-3261,1 50193U 21125AP  23312.73119832  .00002008  00000-0  14422-3 0  9990,2 50193  53.2156 103.7084 0001677  95.3312 264.7872 15.08842391108162,6917.873,95.437,540.898,538.578,0.0
50193.0,STARLINK-3261,PAYLOAD,2023-11-09 14:12:57,15.088346,0.0002128,53.2176,99.8474,93.8118,266.3117,7.3299e-05,8.78e-06,0.0,0 STARLINK-3261,1 50193U 21125AP  23313.59233095  .00000878  00000-0  73299-4 0  9994,2 50193  53.2176  99.8474 0002128  93.8118 266.3117 15.08834600108299,6917.897,95.438,541.234,538.29,0.0
50193.0,STARLINK-3261,PAYLOAD,2023-11-09 17:23:44,15.08818793,0.0001571,53.2176,99.2522,93.1113,267.0059,0.0003176,4.767e-05,0.0,0 STARLINK-3261,1 50193U 21125AP  23313.72481607  .00004767  00000-0  31760-3 0  9990,2 50193  53.2176  99.2522 0001571  93.1113 267.0059 15.08818793107787,6917.945,95.439,540.897,538.723,0.0
50193.0,STARLINK-3261,PAYLOAD,2023-11-10 02:56:02,15.08830933,0.0001496,53.2172,97.4681,95.5476,264.5687,0.00022368,3.273e-05,0.0,0 STARLINK-3261,1 50193U 21125AP  23314.12225285  .00003273  00000-0  22368-3 0  9998,2 50193  53.2172  97.4681 0001496  95.5476 264.5687 15.08830933107849,6917.908,95.438,540.808,538.738,0.0
50193.0,STARLINK-3261,PAYLOAD,2023-11-10 14:03:44,15.08841836,0.0001607,53.2172,95.3836,88.1603,271.9574,0.00010092,1.319e-05,0.0,0 STARLINK-3261,1 50193U 21125AP  23314.58593000  .00001319  00000-0  10092-3 0  9991,2 50193  53.2172  95.3836 0001607  88.1603 271.9574 15.08841836108440,6917.875,95.437,540.851,538.628,0.0
50193.0,STARLINK-3261,PAYLOAD,2023-11-10 17:14:30,15.08849235,0.0001404,53.2164,94.7889,87.881,272.2343,3.3417e-05,2.44e-06,0.0,0 STARLINK-3261,1 50193U 21125AP  23314.71840541  .00000244  00000-0  33417-4 0  9994,2 50193  53.2164  94.7889 0001404  87.8810 272.2343 15.08849235107935,6917.852,95.437,540.688,538.746,0.0
50193.0,STARLINK-3261,PAYLOAD,2023-11-11 13:54:31,15.08830767,0.0001577,53.2169,90.9237,93.1069,267.0104,0.00023868,3.512e-05,0.0,0 STARLINK-3261,1 50193U 21125AP  23315.57953359  .00003512  00000-0  23868-3 0  9990,2 50193  53.2169  90.9237 0001577  93.1069 267.0104 15.08830767108592,6917.909,95.438,540.865,538.683,0.0
50193.0,STARLINK-3261,PAYLOAD,2023-11-11 18:40:40,15.08848034,0.0001414,53.2166,90.0309,92.4874,267.628,0.00011919,1.61e-05,0.0,0 STARLINK-3261,1 50193U 21125AP  23315.77824371  .00001610  00000-0  11919-3 0  9994,2 50193  53.2166  90.0309 0001414  92.4874 267.6280 15.08848034108098,6917.856,95.437,540.699,538.743,0.0
50193.0,STARLINK-3261,PAYLOAD,2023-11-12 02:37:36,15.08837298,0.0001555,53.2186,88.5395,98.984,261.1328,3.5683e-05,2.8e-06,0.0,0 STARLINK-3261,1 50193U 21125AP  23316.10945174  .00000280  00000-0  35683-4 0  9994,2 50193  53.2186  88.5395 0001555  98.9840 261.1328 15.08837298108145,6917.889,95.438,540.829,538.678,0.0
50193.0,STARLINK-3261,PAYLOAD,2023-11-12 13:45:18,15.08840932,0.0001914,53.2183,86.462,83.76,276.361,3.5983e-05,2.85e-06,0.0,0 STARLINK-3261,1 50193U 21125AP  23316.57313155  .00000285  00000-0  35983-4 0  9991,2 50193  53.2183  86.4620 0001914  83.7600 276.3610 15.08840932108742,6917.878,95.437,541.067,538.418,0.0
50193.0,STARLINK-3261,PAYLOAD,2023-11-12 15:20:41,15.08841659,0.0001558,53.2176,86.1652,87.0208,273.0963,2.7349e-05,1.47e-06,0.0,0 STARLINK-3261,1 50193U 21125AP  23316.63937036  .00000147  00000-0  27349-4 0  9992,2 50193  53.2176  86.1652 0001558  87.0208 273.0963 15.08841659108754,6917.875,95.437,540.818,538.663,0.0
50193.0,STARLINK-3261,PAYLOAD,2023-11-13 12:00:41,15.08849927,0.000142,53.2179,82.2979,99.6939,260.4213,5.4828e-05,5.85e-06,0.0,0 STARLINK-3261,1 50193U 21125AP  23317.50048185  .00000585  00000-0  54828-4 0  9995,2 50193  53.2179  82.2979 0001420  99.6939 260.4213 15.08849927108354,6917.85,95.437,540.697,538.733,0.0
50193.0,STARLINK-3261,PAYLOAD,2023-11-13 13:36:04,15.088505,0.0001476,53.2177,82.0015,92.6332,267.4829,8.6318e-05,1.086e-05,0.0,0 STARLINK-3261,1 50193U 21125AP  23317.56672080  .00001086  00000-0  86318-4 0  9994,2 50193  53.2177  82.0015 0001476  92.6332 267.4829 15.08850500108890,6917.848,95.437,540.734,538.692,0.0
50193.0,STARLINK-3261,PAYLOAD,2023-11-13 15:11:27,15.08854255,0.0001492,53.2178,81.7042,93.1133,267.003,0.00010385,1.366e-05,0.0,0 STARLINK-3261,1 50193U 21125AP  23317.63295793  .00001366  00000-0  10385-3 0  9995,2 50193  53.2178  81.7042 0001492  93.1133 267.0030 15.08854255108903,6917.837,95.437,540.734,538.67,0.0
50193.0,STARLINK-3261,PAYLOAD,2023-11-14 11:51:29,15.08833062,0.0001322,53.2164,77.84,79.5524,280.5617,3.4112e-05,2.55e-06,0.0,0 STARLINK-3261,1 50193U 21125AP  23318.49409502  .00000255  00000-0  34112-4 0  9996,2 50193  53.2164  77.8400 0001322  79.5524 280.5617 15.08833062108506,6917.902,95.438,540.681,538.852,0.0
50193.0,STARLINK-3261,PAYLOAD,2023-11-14 13:26:52,15.08833904,0.0001255,53.2161,77.5414,84.3714,275.7421,3.7695e-05,3.12e-06,0.0,0 STARLINK-3261,1 50193U 21125AP  23318.56033409  .00000312  00000-0  37695-4 0  9996,2 50193  53.2161  77.5414 0001255  84.3714 275.7421 15.08833904109049,6917.899,95.438,540.632,538.896,0.0
50193.0,STARLINK-3261,PAYLOAD,2023-11-15 11:42:16,15.08846853,0.0001175,53.2168,73.3781,93.3184,266.7942,-8.2036e-05,-1.593e-05,0.0,0 STARLINK-3261,1 50193U 21125AP  23319.48769067 -.00001593  00000-0 -82036-4 0  9997,2 50193  53.2168  73.3781 0001175  93.3184 266.7942 15.08846853108650,6917.859,95.437,540.537,538.912,0.0
50193.0,STARLINK-3261,PAYLOAD,2023-11-15 14:53:02,15.08848336,0.0001179,53.2167,72.7836,86.0244,274.0883,-1.4369e-05,-5.17e-06,0.0,0 STARLINK-3261,1 50193U 21125AP  23319.62016774 -.00000517  00000-0 -14369-4 0  9992,2 50193  53.2167  72.7836 0001179  86.0244 274.0883 15.08848336109209,6917.855,95.437,540.536,538.904,0.0
50193.0,STARLINK-3261,PAYLOAD,2023-11-16 16:19:13,15.08836165,0.0001176,53.2169,68.026,93.1709,266.9417,0.00010743,1.422e-05,0.0,0 STARLINK-3261,1 50193U 21125AP  23320.68001459  .00001422  00000-0  10743-3 0  9999,2 50193  53.2169  68.0260 0001176  93.1709 266.9417 15.08836165108830,6917.892,95.438,540.571,538.944,0.0
50193.0,STARLINK-3261,PAYLOAD,2023-11-17 12:59:14,15.08838993,0.0001205,53.2174,64.1599,81.7501,278.3627,5.4408e-05,5.78e-06,0.0,0 STARLINK-3261,1 50193U 21125AP  23321.54113620  .00000578  00000-0  54408-4 0  9997,2 50193  53.2174  64.1599 0001205  81.7501 278.3627 15.08838993109498,6917.883,95.438,540.582,538.915,0.0
50193.0,STARLINK-3261,PAYLOAD,2023-11-17 16:10:00,15.08841384,0.0001213,53.2175,63.5651,82.7421,277.3709,6.8438e-05,8.02e-06,0.0,0 STARLINK-3261,1 50193U 21125AP  23321.67361416  .00000802  00000-0  68438-4 0  9997,2 50193  53.2175  63.5651 0001213  82.7421 277.3709 15.08841384109513,6917.876,95.437,540.58,538.902,0.0
50193.0,STARLINK-3261,PAYLOAD,2023-11-18 12:50:01,15.08839153,0.0001497,53.2192,59.7004,95.1425,264.9738,6.8728e-05,8.06e-06,0.0,0 STARLINK-3261,1 50193U 21125AP  23322.53473710  .00000806  00000-0  68728-4 0  9990,2 50193  53.2192  59.7004 0001497  95.1425 264.9738 15.08839153109118,6917.883,95.438,540.784,538.712,0.0
50193.0,STARLINK-3261,PAYLOAD,2023-11-19 12:40:47,15.0884335,0.0001412,53.2173,55.2386,91.9642,268.1512,9.2468e-05,1.184e-05,0.0,0 STARLINK-3261,1 50193U 21125AP  23323.52833307  .00001184  00000-0  92468-4 0  9990,2 50193  53.2173  55.2386 0001412  91.9642 268.1512 15.08843350109797,6917.87,95.437,540.712,538.758,0.0
50193.0,STARLINK-3261,PAYLOAD,2023-11-19 23:48:29,15.08845075,0.0001379,53.2175,53.1577,90.1044,270.0107,2.4448e-05,1.01e-06,0.0,0 STARLINK-3261,1 50193U 21125AP  23323.99201221  .00000101  00000-0  24448-4 0  9996,2 50193  53.2175  53.1577 0001379  90.1044 270.0107 15.08845075109335,6917.865,95.437,540.684,538.776,0.0
50193.0,STARLINK-3261,PAYLOAD,2023-11-20 12:31:35,15.08843126,0.0001406,53.2183,50.7792,92.5277,267.5876,5.7197e-05,6.23e-06,0.0,0 STARLINK-3261,1 50193U 21125AP  23324.52193350  .00000623  00000-0  57197-4 0  9995,2 50193  53.2183  50.7792 0001406  92.5277 267.5876 15.08843126109947,6917.871,95.437,540.708,538.763,0.0
50193.0,STARLINK-3261,PAYLOAD,2023-11-21 10:46:59,15.08825697,0.0001366,53.2182,46.6165,95.1571,264.9577,0.00025569,3.782e-05,0.0,0 STARLINK-3261,1 50193U 21125AP  23325.44929957  .00003782  00000-0  25569-3 0  9993,2 50193  53.2182  46.6165 0001366  95.1571 264.9577 15.08825697109554,6917.924,95.438,540.734,538.844,0.0
50193.0,STARLINK-3261,PAYLOAD,2023-11-22 10:37:45,15.08850982,0.000145,53.2182,42.1564,94.5832,265.5325,0.00013698,1.893e-05,0.0,0 STARLINK-3261,1 50193U 21125AP  23326.44288435  .00001893  00000-0  13698-3 0  9994,2 50193  53.2182  42.1564 0001450  94.5832 265.5325 15.08850982109705,6917.847,95.437,540.715,538.709,0.0
50193.0,STARLINK-3261,PAYLOAD,2023-11-22 12:13:08,15.08854794,0.0001473,53.2183,41.8593,95.039,265.077,0.0001697,2.415e-05,0.0,0 STARLINK-3261,1 50193U 21125AP  23326.50912126  .00002415  00000-0  16970-3 0  9999,2 50193  53.2183  41.8593 0001473  95.0390 265.0770 15.08854794110249,6917.835,95.437,540.719,538.681,0.0
